SL-16 R/B               
1 28353U 04021B   16060.16511503 -.00000295  00000-0 -12961-3 0  9993
2 28353  71.0034 352.5435 0006462 221.6129 138.4503 14.14171991605144
CZ-2C R/B               
1 28480U 04046B   16060.34848020  .00000088  00000-0  48678-4 0  9991
2 28480  98.1682 181.5267 0142229 182.6445 238.7113 14.25574178586725
ARIANE 5 R/B            
1 28499U 04049H   16061.17639091  .00000128  00000-0  23643-4 0  9992
2 28499  98.1199 134.3628 0091558 302.4494  84.1499 14.79642941604048
CZ-2D R/B               
1 28738U 05024B   16060.63506585  .00001245  00000-0  79873-4 0  9990
2 28738  97.5561  99.2645 0012302 185.2212 174.8891 15.10282295584311
SUZAKU (ASTRO-EII)      
1 28773U 05025A   16060.19906800  .00002018  00000-0  10279-3 0  9998
2 28773  31.3828 127.0911 0004954 274.1740  85.8341 15.14366379585408
ALOS (DAICHI)           
1 28931U 06002A   16061.22937394  .00000334  00000-0  75240-4 0  9996
2 28931  97.8982 104.8444 0001796  62.6077 297.5308 14.62133598538343
H-2A R/B                
1 28932U 06002B   16060.32502546  .00001017  00000-0  10191-3 0  9996
2 28932  98.2255 318.1386 0092467  63.7363  50.0453 14.90696158547195
AKARI (ASTRO-F)         
1 28939U 06005A   16060.38406808  .00005505  00000-0  18870-3 0  9994
2 28939  98.2244 206.1699 0118364  25.5017 335.1992 15.24165402540829
RESURS-DK 1             
1 29228U 06021A   16061.21752986  .00000529  00000-0  47924-4 0  9992
2 29228  69.9356 221.1334 0005857 313.5474 102.6886 15.01800321537086
GENESIS 1               
1 29252U 06029A   16061.09501703  .00001550  00000-0  90192-4 0  9992
2 29252  64.5056  29.4928 0039817 238.3462 247.3596 15.15667840530106
CZ-4B R/B               
1 29507U 06046C   16061.13681449  .00000902  00000-0  77282-4 0  9990
2 29507  97.7828  62.4317 0038053  59.8753 300.6233 14.99559533510135
CZ-2C R/B               
1 31114U 07010B   16061.20533482  .00000020  00000-0  28296-4 0  9992
2 31114  98.4155 341.6255 0060362 147.2884 213.2054 14.19191518460435
COSMO-SKYMED 1          
1 31598U 07023A   16061.19630595 -.00000594  00000-0 -68088-4 0  9994
2 31598  97.8782 246.2993 0001434  80.3343 279.8067 14.82149915472384
GENESIS 2               
1 31789U 07028A   16060.22606434  .00001836  00000-0  10568-3 0  9996
2 31789  64.5039  68.6183 0052648 280.5118  79.0074 15.14914563477070
COSMOS 2428             
1 31792U 07029A   16061.09327696  .00000137  00000-0  10000-3 0  9991
2 31792  70.9546 324.8984 0010362 275.8882 146.6951 14.12424950447273
SL-16 R/B               
1 31793U 07029B   16061.17115075  .00000202  00000-0  13051-3 0  9999
2 31793  70.9755 302.7168 0001807 252.3954 258.7541 14.14350799447832
KORONAS-FOTON           
1 33504U 09003A   16060.25021263  .00001695  00000-0  91154-4 0  9996
2 33504  82.4463 343.6939 0018636 310.6477  49.3133 15.14089638389742
TIANGONG 1              
1 37820U 11053A   16061.21671877  .00012588  00000-0  15812-3 0  9997
2 37820  42.7622 171.5877 0010391  18.2211  58.1847 15.59560922253704
CUSAT 2 & FALCON 9 R/B  
1 39271U 13055G   16060.38090272  .00015755  00000-0  42565-3 0  9998
2 39271  80.9711 135.4536 0668232 156.0431 207.3444 14.28839372124743
